[{"OBJECT_NAME":"STARLINK-32848","OBJECT_ID":"2025-018C","EPOCH":"2026-03-09T21:59:34.250496","MEAN_MOTION":15.3020619,"ECCENTRICITY":0.00010745,"INCLINATION":53.1596,"RA_OF_ASC_NODE":308.5039,"ARG_OF_PERICENTER":153.5938,"MEAN_ANOMALY":206.5118,"EPHEMERIS_TYPE":0,"CLASSIFICATION_TYPE":"U","NORAD_CAT_ID":62808,"ELEMENT_SET_NO":999,"REV_AT_EPOCH":6320,"BSTAR":0.00081657949,"MEAN_MOTION_DOT":0.00023908,"MEAN_MOTION_DDOT":0},{"OBJECT_NAME":"COSMOS 1953","OBJECT_ID":"1988-050A","EPOCH":"2026-03-09T18:09:26.993952","MEAN_MOTION":15.28528086,"ECCENTRICITY":0.00124769,"INCLINATION":82.5105,"RA_OF_ASC_NODE":158.18,"ARG_OF_PERICENTER":122.2454,"MEAN_ANOMALY":237.9996,"EPHEMERIS_TYPE":0,"CLASSIFICATION_TYPE":"U","NORAD_CAT_ID":19210,"ELEMENT_SET_NO":999,"REV_AT_EPOCH":3779,"BSTAR":0.00029210954,"MEAN_MOTION_DOT":8.158e-5,"MEAN_MOTION_DDOT":0}]
